{
  "norad_id": 57983,
  "name": "STARLINK-30515",
  "history": [
    {
      "epoch": "2026-03-28T18:18:22.425984Z",
      "apogee_km": 487.669312311401,
      "perigee_km": 483.4429246367681,
      "latitude_deg": -6.096934091093514e-06,
      "longitude_deg": 145.31580589733704,
      "height_km": 485.63140748723157,
      "semi_major_axis_km": 6863.693118474084,
      "eccentricity": 0.00030788,
      "inclination_deg": 43.0035,
      "raan_deg": 246.0878,
      "arg_perigee_deg": 261.9212,
      "mean_anomaly_deg": 98.129,
      "mean_motion_rev_day": 15.26743134
    },
    {
      "epoch": "2026-03-29T03:43:36.509952Z",
      "apogee_km": 487.2649819808639,
      "perigee_km": 483.71236933114506,
      "latitude_deg": 4.070974715504433e-07,
      "longitude_deg": 1.4059401920423151,
      "height_km": 485.59645610598164,
      "semi_major_axis_km": 6863.625675656004,
      "eccentricity": 0.0002588,
      "inclination_deg": 43.0029,
      "raan_deg": 243.8735,
      "arg_perigee_deg": 259.2979,
      "mean_anomaly_deg": 100.7581,
      "mean_motion_rev_day": 15.26765637
    },
    {
      "epoch": "2026-03-30T03:16:44.368032Z",
      "apogee_km": 485.8602701253285,
      "perigee_km": 485.212339365361,
      "latitude_deg": -4.7393795744198384e-05,
      "longitude_deg": 1.6277940078182922,
      "height_km": 485.3605530517899,
      "semi_major_axis_km": 6863.6733047453445,
      "eccentricity": 4.72e-05,
      "inclination_deg": 42.9906,
      "raan_deg": 238.3454,
      "arg_perigee_deg": 261.2388,
      "mean_anomaly_deg": 98.8409,
      "mean_motion_rev_day": 15.26749745
    }
  ]
}